343P/NEAT-LONEOS,e,5.5968,257.0572,137.6013,5.458574,0.0772832,0.58450537,254.1029,02/04.0/2026,2000,g 14.0,4.0
# From MPEC 2025-W75
344P/Read,e,3.4995,273.0992,140.6586,4.853300,0.0921825,0.42360522,310.5874,02/04.0/2026,2000,g 13.0,4.0
# From MPEC 2025-W75
345P/LINEAR,e,2.7280,154.4697,197.0659,4.036885,0.1215163,0.22161473,63.2697,02/04.0/2026,2000,g 12.0,4.0
# From MPEC 2025-W75
346P/Catalina,e,22.2193,102.4566,336.1088,4.466245,0.1044216,0.50384468,341.3790,02/04.0/2026,2000,g 14.0,4.0
# From MPEC 2025-W75
347P/PANSTARRS,e,11.7649,260.9786,98.0191,3.598025,0.1444135,0.38720833,134.4406,02/04.0/2026,2000,g 15.0,4.0
# From MPEC 2025-W75
348P/PANSTARRS,e,17.7447,312.8882,135.8341,3.151138,0.1761988,0.30751410,255.6436,02/04.0/2026,2000,g 14.0,4.0
# From MPEC 2025-W75
349P/Lemmon,e,5.4898,331.7386,255.7028,3.577200,0.1456764,0.29869755,90.0472,02/04.0/2026,2000,g 14.0,4.0
# From MPEC 2025-W75
350P/McNaught,e,7.3653,65.2968,140.0747,4.081672,0.1195217,0.09491061,355.0361,02/04.0/2026,2000,g 14.0,4.0
# From MPEC 2026-A24
351P/Wiegert-PANSTARRS,e,12.7781,283.3830,352.5266,4.439566,0.1053643,0.29462742,33.1919,02/04.0/2026,2000,g 12.5,4.0
# From MPEC 2025-W75
352P/Skiff,e,20.9965,28.0765,309.3287,6.657164,0.0573813,0.61555888,181.0187,02/04.0/2026,2000,g 11.5,4.0
# From MPEC 2025-W75
353P/McNaught,e,28.4103,121.4571,230.5294,4.170321,0.1157310,0.46964355,342.9403,02/04.0/2026,2000,g 14.5,4.0
# From MPEC 2025-W75
354P/LINEAR,e,5.2512,320.0556,133.0149,2.290172,0.2843820,0.12446081,239.8508,02/04.0/2026,2000,g 15.5,4.0
# From MPEC 2025-W75
355P/LINEAR-NEAT,e,11.0462,51.4213,336.2432,3.466441,0.1527138,0.50785644,102.9117,02/04.0/2026,2000,g 15.5,2.0
# From MPEC 2025-W75
356P/WISE,e,9.6401,160.7449,226.2935,4.150669,0.1165539,0.35565602,345.0289,02/04.0/2026,2000,g 14.0,4.0
# From MPEC 2025-W75
357P/Hill,e,6.3133,44.5328,1.5578,4.454258,0.1048434,0.43586603,293.6494,02/04.0/2026,2000,g 15.5,4.0
# From MPEC 2025-W75
358P/PANSTARRS,e,11.0667,85.6655,299.2911,3.145377,0.1766831,0.23940757,144.4833,02/04.0/2026,2000,g 18.0,4.0
# From MPEC 2025-W75
359P/LONEOS,e,10.2590,149.6886,200.2963,4.643232,0.0985085,0.32296046,304.2074,02/04.0/2026,2000,g 13.5,4.0
# From MPEC 2025-W75
360P/WISE,e,24.1201,2.0339,354.4265,3.699819,0.1384948,0.49975704,67.5919,02/04.0/2026,2000,g 19.5,6.0
# From MPEC 2025-W75
361P/Spacewatch,e,13.8952,203.2072,219.1725,4.932718,0.0899652,0.43938050,248.9740,02/04.0/2026,2000,g 12.0,4.0
# From MPEC 2025-W75
363P/Lemmon,e,5.3938,146.7501,340.7973,3.575860,0.1457583,0.51861805,65.2600,02/04.0/2026,2000,g 17.5,4.0
# From MPEC 2025-W75
364P/PANSTARRS,e,11.8267,45.6533,212.9813,2.903877,0.1991759,0.71585800,199.1610,02/04.0/2026,2000,g 17.0,2.0
# From MPEC 2025-W75
365P/PANSTARRS,e,9.8444,86.2972,67.7694,3.156290,0.1757676,0.58184139,149.1033,02/04.0/2026,2000,g 17.0,4.0
# From MPEC 2025-W75
366P/Spacewatch,e,8.8560,70.7567,152.9326,3.500308,0.1505029,0.34870442,55.5606,02/04.0/2026,2000,g 15.0,4.0
# From MPEC 2025-W75
367P/Catalina,e,8.4580,58.7082,172.6049,3.511495,0.1497842,0.28020727,58.1998,02/04.0/2026,2000,g 17.5,2.0
# From MPEC 2025-W75
368P/NEAT,e,15.4865,257.7835,119.0545,5.536729,0.0756526,0.62517464,204.2540,02/04.0/2026,2000,g 14.0,4.0
# From MPEC 2025-W75
369P/Hill,e,10.3201,47.2655,13.2743,4.377850,0.1076001,0.55579232,286.4945,02/04.0/2026,2000,g 15.0,4.0
# From MPEC 2025-W75
370P/NEAT,e,19.4174,55.0674,356.8265,6.442113,0.0602784,0.61475517,168.3914,02/04.0/2026,2000,g 13.0,4.0
# From MPEC 2025-W75
371P/LINEAR-Skiff,e,17.3878,67.2236,308.6182,4.180542,0.1153069,0.47638866,308.5601,02/04.0/2026,2000,g 16.0,4.0
# From MPEC 2025-W75
372P/McNaught,e,9.4988,325.7586,27.6530,4.514024,0.1027681,0.15100336,273.6988,02/04.0/2026,2000,g 13.5,4.0
# From MPEC 2025-W75
373P/Rinner,e,13.7725,231.9483,221.1558,3.796129,0.1332578,0.39383699,331.6126,02/04.0/2026,2000,g 14.5,4.0
# From MPEC 2025-W75
374P/Larson,e,10.7552,7.8289,51.6394,4.971596,0.0889120,0.46340446,229.1240,02/04.0/2026,2000,g 14.0,4.0
# From MPEC 2025-W75
375P/Hill,e,17.3811,359.7958,119.5035,5.544856,0.0754864,0.66041001,196.1195,02/04.0/2026,2000,g 16.0,4.0
# From MPEC 2025-W75
376P/LONEOS,e,1.1662,312.8540,285.2938,5.753697,0.0714140,0.51396539,166.8726,02/04.0/2026,2000,g 12.5,4.0
# From MPEC 2025-W75
377P/Scotti,e,9.0457,225.8210,355.0006,6.693936,0.0569091,0.25185893,115.7751,02/04.0/2026,2000,g  9.5,4.0
# From MPEC 2026-A90
378P/McNaught,e,19.1583,93.7924,193.2433,6.285555,0.0625444,0.46276812,121.8997,02/04.0/2026,2000,g 12.0,4.0
# From MPEC 2026-A24
379P/Spacewatch,e,12.4298,183.5094,31.6161,3.484088,0.1515551,0.34999207,357.1340,02/04.0/2026,2000,g 15.0,4.0
# From MPEC 2025-W75
380P/PANSTARRS,e,8.0420,127.6317,87.3549,4.454409,0.1048380,0.33266987,264.0261,02/04.0/2026,2000,g 12.5,4.0
# From MPEC 2025-W75
381P/LINEAR-Spacewatch,e,28.3222,173.8335,173.3338,7.145166,0.0516043,0.68017950,119.9887,02/04.0/2026,2000,g 17.5,2.0
# From MPEC 2025-W75
382P/Larson,e,8.3086,169.3779,162.8830,5.885270,0.0690326,0.26168911,108.2310,02/04.0/2026,2000,g  8.0,4.0
# From MPEC 2025-W75
383P/Christensen,e,12.3203,207.8191,133.7406,3.549618,0.1473777,0.59841400,338.0998,02/04.0/2026,2000,g 18.0,4.0
# From MPEC 2025-W75
384P/Kowalski,e,7.2839,354.1874,37.6947,2.897042,0.1998812,0.61616653,100.5286,02/04.0/2026,2000,g 19.5,4.0
# From MPEC 2025-W75
385P/Hill,e,16.8164,356.9854,44.5148,4.289325,0.1109483,0.40163896,258.6846,02/04.0/2026,2000,g 13.0,4.0
# From MPEC 2025-W75
386P/PANSTARRS,e,15.2488,134.9176,353.1348,4.048085,0.1210123,0.41768991,241.0737,02/04.0/2026,2000,g 14.5,4.0
# From MPEC 2025-W75
387P/Boattini,e,8.9422,259.2108,162.8891,4.797738,0.0937884,0.73678042,219.4332,02/04.0/2026,2000,g 15.0,4.0
# From MPEC 2025-W75
388P/Gibbs,e,23.8674,37.0020,42.3929,5.241051,0.0821441,0.61925688,195.8027,02/04.0/2026,2000,g 13.0,4.0
# From MPEC 2025-W75
389P/SidingSpring,e,160.0750,218.8253,249.2759,5.628669,0.0738067,0.70600112,164.3561,02/04.0/2026,2000,g 16.0,4.0
# From MPEC 2025-W75
390P/Gibbs,e,18.5136,152.1761,232.5931,5.819331,0.0702093,0.70624775,150.6243,02/04.0/2026,2000,g 12.0,4.0
# From MPEC 2025-W75
391P/Kowalski,e,21.2514,124.7072,186.7946,4.693424,0.0969325,0.11832803,279.9648,02/04.0/2026,2000,g  8.0,4.0
# From MPEC 2025-W75
392P/LINEAR,e,4.9251,24.7821,72.0079,6.143652,0.0647238,0.68389114,138.0254,02/04.0/2026,2000,g 14.5,4.0
# From MPEC 2025-W75
393P/Spacewatch-Hill,e,16.7796,36.4046,329.1277,4.802426,0.0936511,0.11868053,214.5300,02/04.0/2026,2000,g 11.0,4.0
# From MPEC 2025-W75
394P/PANSTARRS,e,8.5276,98.0842,54.5202,4.324828,0.1095849,0.36870935,247.1305,02/04.0/2026,2000,g 16.0,2.4
# From MPEC 2025-W75
395P/Catalina-NEAT,e,3.5664,220.9301,100.8021,7.202926,0.0509848,0.41026623,73.7141,02/04.0/2026,2000,g 10.0,4.0
# From MPEC 2025-W75
396P/Leonard,e,5.4442,136.6013,8.3280,6.798401,0.0556024,0.41729578,130.6467,02/04.0/2026,2000,g 12.0,4.0
# From MPEC 2025-W75
397P/Lemmon,e,10.9173,8.1612,14.6225,3.832739,0.1313531,0.40433975,269.9723,02/04.0/2026,2000,g 12.0,4.0
# From MPEC 2025-W75
398P/Boattini,e,11.0284,127.4070,320.3018,3.123508,0.1785419,0.58376147,332.5136,02/04.0/2026,2000,g 15.5,4.0
# From MPEC 2025-W75
399P/PANSTARRS,e,13.3130,207.1007,214.4786,3.793870,0.1333768,0.44710279,229.0335,02/04.0/2026,2000,g 14.0,4.0
# From MPEC 2025-W75
400P/PANSTARRS,e,10.9253,176.3292,238.9835,3.561843,0.1466196,0.40945794,266.5702,02/04.0/2026,2000,g 15.5,2.8
# From MPEC 2025-W75
401P/McNaught,e,12.8023,359.9081,309.3057,5.775580,0.0710086,0.57826993,160.2488,02/04.0/2026,2000,g 12.5,4.0
# From MPEC 2025-W75
402P/LINEAR,e,30.8290,123.0336,327.0779,7.045259,0.0527058,0.43989471,79.6253,02/04.0/2026,2000,g  8.0,4.0
# From MPEC 2025-W75
403P/Catalina,e,12.3135,163.7092,277.8502,5.433902,0.0778102,0.50406929,152.8908,02/04.0/2026,2000,g 12.0,4.0
# From MPEC 2025-W75
404P/Bressi,e,9.8037,260.0335,168.8048,4.715768,0.0962444,0.12375352,79.6925,02/04.0/2026,2000,g 10.0,4.0
# From MPEC 2025-W75
405P/Lemmon,e,9.3745,3.2015,112.3152,3.603078,0.1441098,0.69029714,268.8402,02/04.0/2026,2000,g 17.5,4.0
# From MPEC 2025-W75
406P/Gibbs,e,1.2099,11.4940,352.4331,3.580157,0.1454959,0.54081749,286.3794,02/04.0/2026,2000,g 17.0,4.0
# From MPEC 2025-W75
407P/PANSTARRS-Fuls,e,4.8724,80.2377,92.9722,3.495041,0.1508432,0.37529496,334.1444,02/04.0/2026,2000,g 14.0,4.0
# From MPEC 2025-W75
408P/Novichonok-Gerke,e,19.3474,189.4517,226.7402,4.747075,0.0952939,0.26812584,115.9788,02/04.0/2026,2000,g 11.0,4.0
# From MPEC 2025-W75
409P/LONEOS-Hill,e,17.1558,143.6393,15.0401,6.032477,0.0665213,0.71046650,121.8525,02/04.0/2026,2000,g 14.0,4.0
# From MPEC 2025-W75
410P/NEAT-LINEAR,e,9.3888,139.8903,313.3694,6.657018,0.0573832,0.51159712,96.6949,02/04.0/2026,2000,g 12.5,4.0
# From MPEC 2025-W75
411P/Christensen,e,12.3865,77.6459,46.5936,5.812250,0.0703376,0.58193784,129.0465,02/04.0/2026,2000,g 13.5,4.0
# From MPEC 2025-W75
412P/WISE,e,8.9281,0.8236,155.8220,3.113284,0.1794221,0.47913459,339.2674,02/04.0/2026,2000,g 17.0,4.0
# From MPEC 2025-W75
413P/Larson,e,15.9510,38.9365,186.6744,3.737435,0.1364092,0.41739500,227.3988,02/04.0/2026,2000,g 14.0,4.0
# From MPEC 2026-A24
414P/STEREO,e,23.4066,257.8152,210.7124,2.792411,0.2112200,0.81228284,27.6036,02/04.0/2026,2000,g 19.0,4.0
# From MPEC 2025-W75
415P/Tenagra,e,31.8159,160.2577,345.9336,4.107182,0.1184099,0.19576446,214.8608,02/04.0/2026,2000,g 12.0,4.0
# From MPEC 2025-W75
416P/Scotti,e,3.3643,355.7216,134.4869,4.005671,0.1229394,0.45566893,222.8162,02/04.0/2026,2000,g 15.5,4.0
# From MPEC 2025-W75
417P/NEOWISE,e,11.3435,95.2690,142.0930,3.385526,0.1582212,0.53627729,285.4991,02/04.0/2026,2000,g 16.5,4.0
# From MPEC 2025-W75
418P/LINEAR,e,5.7868,277.2558,307.6578,5.087584,0.0858888,0.66423288,134.9772,02/04.0/2026,2000,g 13.0,4.0
# From MPEC 2025-W75
419P/PANSTARRS,e,2.7911,40.3654,187.7121,3.538597,0.1480667,0.27233575,232.2435,02/04.0/2026,2000,g 12.5,4.0
# From MPEC 2025-W75
420P/Hill,e,14.5291,173.3310,156.4019,5.471731,0.0770047,0.49483748,104.7096,02/04.0/2026,2000,g 11.5,4.0
# From MPEC 2025-W75
